{"fetched_at":"2026-07-20T07:40:27.080Z","source":"https://celestrak.org/NORAD/elements/gp.php?GROUP=qianfan&FORMAT=JSON","constellation":"qianfan","records":[{"OBJECT_NAME":"QIANFAN-209","OBJECT_ID":"2026-153J","EPOCH":"2026-07-19T06:04:08.097600","CLASSIFICATION_TYPE":"U","MEAN_MOTION":14.18642799,"ECCENTRICITY":0.0006791,"INCLINATION":88.9921,"RA_OF_ASC_NODE":358.5819,"ARG_OF_PERICENTER":200.7636,"MEAN_ANOMALY":159.3278,"EPHEMERIS_TYPE":0,"NORAD_CAT_ID":69808,"ELEMENT_SET_NO":999,"REV_AT_EPOCH":212,"BSTAR":-0.99336,"MEAN_MOTION_DOT":-0.01912362,"MEAN_MOTION_DDOT":0},{"OBJECT_NAME":"QIANFAN-210","OBJECT_ID":"2026-153K","EPOCH":"2026-07-19T14:24:51.420096","CLASSIFICATION_TYPE":"U","MEAN_MOTION":14.19393556,"ECCENTRICITY":0.0006954,"INCLINATION":88.9925,"RA_OF_ASC_NODE":358.5414,"ARG_OF_PERICENTER":190.0162,"MEAN_ANOMALY":170.089,"EPHEMERIS_TYPE":0,"NORAD_CAT_ID":69809,"ELEMENT_SET_NO":999,"REV_AT_EPOCH":217,"BSTAR":-0.98214,"MEAN_MOTION_DOT":-0.01917183,"MEAN_MOTION_DDOT":0},{"OBJECT_NAME":"QIANFAN-211","OBJECT_ID":"2026-153L","EPOCH":"2026-07-19T14:23:44.886912","CLASSIFICATION_TYPE":"U","MEAN_MOTION":14.19275357,"ECCENTRICITY":0.0005964,"INCLINATION":88.9923,"RA_OF_ASC_NODE":358.5407,"ARG_OF_PERICENTER":190.8396,"MEAN_ANOMALY":169.2667,"EPHEMERIS_TYPE":0,"NORAD_CAT_ID":69810,"ELEMENT_SET_NO":999,"REV_AT_EPOCH":217,"BSTAR":-0.97145,"MEAN_MOTION_DOT":-0.01893711,"MEAN_MOTION_DDOT":0},{"OBJECT_NAME":"QIANFAN-212","OBJECT_ID":"2026-153M","EPOCH":"2026-07-18T04:32:30.888096","CLASSIFICATION_TYPE":"U","MEAN_MOTION":14.22682297,"ECCENTRICITY":0.00122001,"INCLINATION":88.9888,"RA_OF_ASC_NODE":358.7049,"ARG_OF_PERICENTER":152.0967,"MEAN_ANOMALY":208.0882,"EPHEMERIS_TYPE":0,"NORAD_CAT_ID":69811,"ELEMENT_SET_NO":999,"REV_AT_EPOCH":197,"BSTAR":-0.97540315,"MEAN_MOTION_DOT":-0.0201872,"MEAN_MOTION_DDOT":0},{"OBJECT_NAME":"QIANFAN-213","OBJECT_ID":"2026-153N","EPOCH":"2026-07-17T21:48:21.510720","CLASSIFICATION_TYPE":"U","MEAN_MOTION":14.21939575,"ECCENTRICITY":0.00078274,"INCLINATION":88.9917,"RA_OF_ASC_NODE":358.7338,"ARG_OF_PERICENTER":155.5754,"MEAN_ANOMALY":204.5809,"EPHEMERIS_TYPE":0,"NORAD_CAT_ID":69812,"ELEMENT_SET_NO":999,"REV_AT_EPOCH":193,"BSTAR":-0.9822754,"MEAN_MOTION_DOT":-0.02004805,"MEAN_MOTION_DDOT":0},{"OBJECT_NAME":"QIANFAN-214","OBJECT_ID":"2026-153P","EPOCH":"2026-07-18T23:03:39.865248","CLASSIFICATION_TYPE":"U","MEAN_MOTION":14.26672643,"ECCENTRICITY":0.0008141,"INCLINATION":88.9926,"RA_OF_ASC_NODE":358.6122,"ARG_OF_PERICENTER":171.0888,"MEAN_ANOMALY":189.0452,"EPHEMERIS_TYPE":0,"NORAD_CAT_ID":69813,"ELEMENT_SET_NO":999,"REV_AT_EPOCH":208,"BSTAR":0.000018792264,"MEAN_MOTION_DOT":6e-7,"MEAN_MOTION_DDOT":0},{"OBJECT_NAME":"QIANFAN-215","OBJECT_ID":"2026-153Q","EPOCH":"2026-07-18T23:03:34.083360","CLASSIFICATION_TYPE":"U","MEAN_MOTION":14.2671908,"ECCENTRICITY":0.00083545,"INCLINATION":88.9925,"RA_OF_ASC_NODE":358.6119,"ARG_OF_PERICENTER":173.3885,"MEAN_ANOMALY":186.742,"EPHEMERIS_TYPE":0,"NORAD_CAT_ID":69814,"ELEMENT_SET_NO":999,"REV_AT_EPOCH":208,"BSTAR":0.00004637606,"MEAN_MOTION_DOT":0.00000127,"MEAN_MOTION_DDOT":0},{"OBJECT_NAME":"QIANFAN-216","OBJECT_ID":"2026-153R","EPOCH":"2026-07-19T07:28:31.964448","CLASSIFICATION_TYPE":"U","MEAN_MOTION":14.26720384,"ECCENTRICITY":0.00083806,"INCLINATION":88.9926,"RA_OF_ASC_NODE":358.5716,"ARG_OF_PERICENTER":172.1459,"MEAN_ANOMALY":187.9868,"EPHEMERIS_TYPE":0,"NORAD_CAT_ID":69815,"ELEMENT_SET_NO":999,"REV_AT_EPOCH":213,"BSTAR":0.000056574274,"MEAN_MOTION_DOT":0.00000152,"MEAN_MOTION_DDOT":0},{"OBJECT_NAME":"QIANFAN-217","OBJECT_ID":"2026-153S","EPOCH":"2026-07-19T19:14:44.217888","CLASSIFICATION_TYPE":"U","MEAN_MOTION":14.2676823,"ECCENTRICITY":0.0008145,"INCLINATION":88.9926,"RA_OF_ASC_NODE":358.5145,"ARG_OF_PERICENTER":167.4202,"MEAN_ANOMALY":192.7197,"EPHEMERIS_TYPE":0,"NORAD_CAT_ID":69816,"ELEMENT_SET_NO":999,"REV_AT_EPOCH":220,"BSTAR":0.000015677,"MEAN_MOTION_DOT":5.3e-7,"MEAN_MOTION_DDOT":0},{"OBJECT_NAME":"QIANFAN-218","OBJECT_ID":"2026-153T","EPOCH":"2026-07-19T20:55:04.543104","CLASSIFICATION_TYPE":"U","MEAN_MOTION":14.26811585,"ECCENTRICITY":0.0007926,"INCLINATION":88.9929,"RA_OF_ASC_NODE":358.5069,"ARG_OF_PERICENTER":164.5769,"MEAN_ANOMALY":195.5667,"EPHEMERIS_TYPE":0,"NORAD_CAT_ID":69817,"ELEMENT_SET_NO":999,"REV_AT_EPOCH":221,"BSTAR":0.000047861,"MEAN_MOTION_DOT":0.00000131,"MEAN_MOTION_DDOT":0},{"OBJECT_NAME":"QIANFAN-219","OBJECT_ID":"2026-155A","EPOCH":"2026-07-19T13:42:55.260288","CLASSIFICATION_TYPE":"U","MEAN_MOTION":14.22001674,"ECCENTRICITY":0.0029457,"INCLINATION":89.0059,"RA_OF_ASC_NODE":60.4479,"ARG_OF_PERICENTER":207.2393,"MEAN_ANOMALY":152.7255,"EPHEMERIS_TYPE":0,"NORAD_CAT_ID":69848,"ELEMENT_SET_NO":999,"REV_AT_EPOCH":200,"BSTAR":-0.87017,"MEAN_MOTION_DOT":-0.01799626,"MEAN_MOTION_DDOT":0},{"OBJECT_NAME":"QIANFAN-220","OBJECT_ID":"2026-155B","EPOCH":"2026-07-19T21:12:10.575072","CLASSIFICATION_TYPE":"U","MEAN_MOTION":14.17597853,"ECCENTRICITY":0.0029803,"INCLINATION":89.0063,"RA_OF_ASC_NODE":60.42,"ARG_OF_PERICENTER":206.4572,"MEAN_ANOMALY":153.5097,"EPHEMERIS_TYPE":0,"NORAD_CAT_ID":69849,"ELEMENT_SET_NO":999,"REV_AT_EPOCH":204,"BSTAR":0.000013542,"MEAN_MOTION_DOT":4.2e-7,"MEAN_MOTION_DDOT":0},{"OBJECT_NAME":"QIANFAN-221","OBJECT_ID":"2026-155C","EPOCH":"2026-07-19T20:27:43.859808","CLASSIFICATION_TYPE":"U","MEAN_MOTION":14.26648253,"ECCENTRICITY":0.0030795,"INCLINATION":89.0063,"RA_OF_ASC_NODE":60.4155,"ARG_OF_PERICENTER":207.623,"MEAN_ANOMALY":152.3329,"EPHEMERIS_TYPE":0,"NORAD_CAT_ID":69850,"ELEMENT_SET_NO":999,"REV_AT_EPOCH":204,"BSTAR":0.00006632,"MEAN_MOTION_DOT":0.00000175,"MEAN_MOTION_DDOT":0},{"OBJECT_NAME":"QIANFAN-222","OBJECT_ID":"2026-155D","EPOCH":"2026-07-17T19:58:00.985440","CLASSIFICATION_TYPE":"U","MEAN_MOTION":14.22185075,"ECCENTRICITY":0.00295553,"INCLINATION":89.0065,"RA_OF_ASC_NODE":60.6495,"ARG_OF_PERICENTER":214.6997,"MEAN_ANOMALY":145.2267,"EPHEMERIS_TYPE":0,"NORAD_CAT_ID":69851,"ELEMENT_SET_NO":999,"REV_AT_EPOCH":175,"BSTAR":0.000015570034,"MEAN_MOTION_DOT":4.9e-7,"MEAN_MOTION_DDOT":0},{"OBJECT_NAME":"QIANFAN-223","OBJECT_ID":"2026-155E","EPOCH":"2026-07-19T02:17:50.556192","CLASSIFICATION_TYPE":"U","MEAN_MOTION":14.18104033,"ECCENTRICITY":0.0034503,"INCLINATION":89.0058,"RA_OF_ASC_NODE":60.5062,"ARG_OF_PERICENTER":216.3041,"MEAN_ANOMALY":143.5808,"EPHEMERIS_TYPE":0,"NORAD_CAT_ID":69852,"ELEMENT_SET_NO":999,"REV_AT_EPOCH":193,"BSTAR":-1.06,"MEAN_MOTION_DOT":-0.02023195,"MEAN_MOTION_DDOT":0},{"OBJECT_NAME":"QIANFAN-224","OBJECT_ID":"2026-155F","EPOCH":"2026-07-17T21:29:45.028320","CLASSIFICATION_TYPE":"U","MEAN_MOTION":14.18497223,"ECCENTRICITY":0.00311144,"INCLINATION":89.0052,"RA_OF_ASC_NODE":60.6399,"ARG_OF_PERICENTER":224.5648,"MEAN_ANOMALY":135.3039,"EPHEMERIS_TYPE":0,"NORAD_CAT_ID":69853,"ELEMENT_SET_NO":999,"REV_AT_EPOCH":176,"BSTAR":-0.93450076,"MEAN_MOTION_DOT":-0.01809487,"MEAN_MOTION_DDOT":0}]}
