QIANFAN-209             
1 69808U 26153J   26200.25287150 -.01912362  00000+0 -99336+0 0  9992
2 69808  88.9921 358.5819 0006791 200.7636 159.3278 14.18642799  2127
QIANFAN-210             
1 69809U 26153K   26200.60059514 -.01917183  00000+0 -98214+0 0  9993
2 69809  88.9925 358.5414 0006954 190.0162 170.0890 14.19393556  2179
QIANFAN-211             
1 69810U 26153L   26200.59982508 -.01893711  00000+0 -97145+0 0  9993
2 69810  88.9923 358.5407 0005964 190.8396 169.2667 14.19275357  2178
QIANFAN-212             
1 69811U 26153M   26199.18924639 -.02018720  00000+0 -97540+0 0  9996
2 69811  88.9888 358.7049 0012200 152.0967 208.0882 14.22682297  1975
QIANFAN-213             
1 69812U 26153N   26198.90858230 -.02004805  00000+0 -98228+0 0  9992
2 69812  88.9917 358.7338 0007827 155.5754 204.5809 14.21939575  1930
QIANFAN-214             
1 69813U 26153P   26199.96087807  .00000060  00000+0  18792-4 0  9992
2 69813  88.9926 358.6122 0008141 171.0888 189.0452 14.26672643  2085
QIANFAN-215             
1 69814U 26153Q   26199.96081115  .00000127  00000+0  46376-4 0  9992
2 69814  88.9925 358.6119 0008354 173.3885 186.7420 14.26719080  2085
QIANFAN-216             
1 69815U 26153R   26200.31148107  .00000152  00000+0  56574-4 0  9999
2 69815  88.9926 358.5716 0008380 172.1459 187.9868 14.26720384  2136
QIANFAN-217             
1 69816U 26153S   26200.80190067  .00000053  00000+0  15677-4 0  9995
2 69816  88.9926 358.5145 0008145 167.4202 192.7197 14.26768230  2204
QIANFAN-218             
1 69817U 26153T   26200.87158036  .00000131  00000+0  47861-4 0  9990
2 69817  88.9929 358.5069 0007926 164.5769 195.5667 14.26811585  2211
QIANFAN-219             
1 69848U 26155A   26200.57147292 -.01799626  00000+0 -87017+0 0  9994
2 69848  89.0059  60.4479 0029457 207.2393 152.7255 14.22001674  2007
QIANFAN-220             
1 69849U 26155B   26200.88345573  .00000042  00000+0  13542-4 0  9992
2 69849  89.0063  60.4200 0029803 206.4572 153.5097 14.17597853  2040
QIANFAN-221             
1 69850U 26155C   26200.85259097  .00000175  00000+0  66320-4 0  9995
2 69850  89.0063  60.4155 0030795 207.6230 152.3329 14.26648253  2043
QIANFAN-222             
1 69851U 26155D   26198.83195585  .00000049  00000+0  15570-4 0  9992
2 69851  89.0065  60.6495 0029555 214.6997 145.2267 14.22185075  1758
QIANFAN-223             
1 69852U 26155E   26200.09572403 -.02023195  00000+0 -10600+1 0  9999
2 69852  89.0058  60.5062 0034503 216.3041 143.5808 14.18104033  1930
QIANFAN-224             
1 69853U 26155F   26198.89566005 -.01809487  00000+0 -93450+0 0  9993
2 69853  89.0052  60.6399 0031114 224.5648 135.3039 14.18497223  1760
